[Satellite]
VERSION=1.1
NAME=ATLANTIC BIRD 2
NICKNAME=ATLANTIC BIRD 2
TLE1=1 26927U 01042A   15055.21953204 -.00000092  00000-0  00000+0 0  9996
TLE2=2 26927   0.0812  39.2034 0005481 282.3373 263.1736  1.00272657 49108
